#aV2014  9 17  0  0  0.00000000     288 DD+AD WGS84 FIT  NGA
## 1810 259200.00000000   300.00000000 56917 0.0000000000000
+   31     1  2  4  5  6  7  8  9 10 11 12 13 14 15 16 17 18
+         19 20 21 22 23 24 25 26 27 28 29 30 31 32  0  0  0
+          0  0  0  0  0  0  0  0  0  0  0  0  0  0  0  0  0
+          0  0  0  0  0  0  0  0  0  0  0  0  0  0  0  0  0
+          0  0  0  0  0  0  0  0  0  0  0  0  0  0  0  0  0
++         2  2  2  2  2  2  2  2  2  2  2  2  2  2  2  2  2
++         2  2  2  2  2  2  2  2  2  2  2  2  2  2  0  0  0
++         0  0  0  0  0  0  0  0  0  0  0  0  0  0  0  0  0
++         0  0  0  0  0  0  0  0  0  0  0  0  0  0  0  0  0
++         0  0  0  0  0  0  0  0  0  0  0  0  0  0  0  0  0
%c cc cc ccc ccc cccc cccc cccc cccc ccccc ccccc ccccc ccccc
%c cc cc ccc ccc cccc cccc cccc cccc ccccc ccccc ccccc ccccc
%f  0.0000000  0.000000000  0.00000000000  0.000000000000000
%f  0.0000000  0.000000000  0.00000000000  0.000000000000000
%i    0    0    0    0      0      0      0      0         0
%i    0    0    0    0      0      0      0      0         0
/*      NGA, ST. LOUIS,MO.                                  
/*   EPHEMERIS COMPUTED FROM  1 DAYS OF DATA                
/*   EPOCHA SMOOTHER                                       
/* CCCCCCCCCCCCCCCCCCCCCCCCCCCCCCCCCCCCCCCCCCCCCCCCCCCCCCCCC
*  2014  9 17 16 50  0.00000000
P  1  15397.017241  -1351.980229  21567.764449     21.329624                    
V  1   8276.306396  26201.730887  -4104.600851      0.005236                    
P  2 -13836.108363 -21504.933692  -7734.257678    518.991879                    
V  2   -727.812110 -10520.484717  28896.257912      0.022120                    
P  4  12876.156768  -9445.364054  20850.134366     -0.781658                    
V  4   9702.640282  25611.256674   5777.359595     -0.002876                    
P  5 -11950.452341  -9922.401193 -21586.958914   -338.702052                    
V  5  18053.459506 -20562.335182   -372.056766      0.038040                    
P  6  -6026.557836 -25626.360718   3559.653827     -4.574811                    
V  6   4062.863891   3416.667199  31332.828773      0.009170                    
P  7   9294.539095 -15114.491457 -19554.971658    392.651820                    
V  7   8615.552195  23619.545278 -14444.903697      0.041864                    
P  8  11797.133898 -10470.302995 -21021.546377     15.601745                    
V  8   6150.330239  26548.418086 -10295.950953      0.001624                    
P  9  18076.389783  -8792.118767 -17365.537382     19.030410                    
V  9  21288.591007   6024.012903  19085.535384     -0.023825                    
P 10   3142.149861 -20937.401915 -16124.521068   -142.317809                    
V 10  15273.350954 -13229.149580  21032.492609     -0.014604                    
P 11  20111.904571   4781.257608  16254.593077   -521.946831                    
V 11  10747.581790  19204.073795 -18189.209149     -0.029059                    
P 12 -20180.089409   5696.290557  16090.984306    232.631558                    
V 12  13215.277769 -15881.595346  22294.161195      0.026595                    
P 13  19250.751533  -6224.193893 -17423.473993    -42.470671                    
V 13  20351.730871   7857.085010  19649.411182     -0.039049                    
P 14   -204.511037  15518.143505  21804.259188    134.015064                    
V 14 -26141.101837  -7105.084441   4714.831160     -0.036734                    
P 15 -26496.628793  -3076.827506   1623.258697   -203.399626                    
V 15  -1558.040851  -3648.485368 -30893.459949     -0.022331                    
P 16  10951.615505   9717.104154 -22223.278124   -194.238016                    
V 16 -19844.918934  19741.400728   -805.266265      0.025331                    
P 17    524.686339 -15375.751580  21932.713367   -124.545600                    
V 17  26410.068047   6392.937451   3673.592119     -0.026703                    
P 18 -15684.450735  21115.898184   2542.175286    345.484157                    
V 18  -4920.086381   -642.692970 -30941.066299      0.025407                    
P 19  25323.887984   8704.441368  -1413.637531   -479.157097                    
V 19  -2156.545230   1690.383956 -31522.324401     -0.018737                    
P 20  20452.725022 -11647.910431  12048.858487    234.967075                    
V 20  -7003.155174  14435.980220  25507.101659      0.044158                    
P 21  -5527.145898  19896.277618 -15813.147017   -384.524741                    
V 21  -9760.343723 -19419.238455 -20627.693952     -0.020722                    
P 22  -5603.008624  22171.517997  13588.925800    268.737751                    
V 22 -13525.613889  10862.598511 -23844.257458      0.034207                    
P 23  25046.359407  -1429.369236  -9226.869000    -53.058542                    
V 23  10995.692837   4930.953179  28263.900839     -0.028952                    
P 24 -16425.058665  -2733.793377  20697.568775    -35.352765                    
V 24  -7845.643653 -25130.493469  -9435.411974     -0.005975                    
P 25 -19947.954141  16226.015649   6285.004863     21.192830                    
V 25   3606.843230  -7614.968304  30856.314048     -0.010476                    
P 26 -21364.948510 -13359.109383  -9486.600562    -58.199737                    
V 26  11062.978715   1510.040843 -28799.902785     -0.129923                    
P 27  20277.724261  12465.583535 -11871.790317     15.221310                    
V 27 -15162.638816   -774.395034 -26680.759433      0.030263                    
P 28  10843.054965 -21526.746184  11615.997104    385.015341                    
V 28  10958.132940  -8580.490035 -27709.273727      0.027495                    
P 29 -19134.029013   7052.060896 -16969.143093    560.975037                    
V 29 -20495.217441  -6983.607048  20213.855348      0.024523                    
P 30   2853.671123 -23470.350217 -12051.901911    -63.036380                    
V 30   6098.640387  14272.748979 -26400.944942     -0.044516                    
P 31   6394.949662  25548.313081   1805.712436    331.612765                    
V 31  -3041.213418  -1304.854276  32222.588924     -0.004302                    
P 32  17233.836601   3236.178441  19821.910420   -338.013324                    
V 32 -17236.793776  18592.085658  12512.770535      0.085902                    
EOF
